{
  "norad_id": 44542,
  "name": "BEIDOU-3 M24",
  "history": [
    {
      "epoch": "2026-03-26T13:13:55.330176",
      "apogee_km": 21551.138652750506,
      "perigee_km": 21505.40562945007,
      "latitude_deg": 21.35448415949382,
      "longitude_deg": -64.87185535999015,
      "semi_major_axis_km": 27906.40914110029,
      "eccentricity": 0.0008194,
      "inclination_deg": 54.397,
      "raan_deg": 185.5149,
      "arg_perigee_deg": 15.0686,
      "mean_anomaly_deg": 344.9633,
      "mean_motion_rev_day": 1.86228792
    }
  ]
}